STARLINK-34130          
1 64736U 25144N   26177.31733837  .00205574  00000+0  66816-2 0  9991
2 64736  53.1588  36.4454 0002584 178.9341 181.1666 15.30592825 56343
STARLINK-34619          
1 64737U 25144P   26177.34804899  .00015660  00000+0  53968-3 0  9992
2 64737  53.1590  36.6373 0001116  81.7925 278.3203 15.30203527 56342
STARLINK-34597          
1 64738U 25144Q   26177.74933396  .00017499  00000+0  60184-3 0  9992
2 64738  53.1594  34.1690 0000961  84.5816 275.5294 15.30183334 56396
STARLINK-34471          
1 64739U 25144R   26176.93928120  .00025130  00000+0  85757-3 0  9996
2 64739  53.1606  38.3552 0001157  70.5862 289.5263 15.30206171 56226
STARLINK-34208          
1 64740U 25144S   26177.59164102  .00020521  00000+0  61705-3 0  9999
2 64740  53.1584  31.0595 0002127  96.1040 264.0205 15.34387142 56440
STARLINK-34205          
1 64741U 25144T   26177.75001156 -.00010077  00000+0 -28762-3 0  9990
2 64741  53.1595  34.3080 0000852 104.2738 187.5512 15.34389513  5893
STARLINK-34607          
1 64742U 25144U   26177.59876787  .00015957  00000+0  54991-3 0  9996
2 64742  53.1585  35.3612 0002408  85.7492 274.3784 15.30188038 56363
STARLINK-34236          
1 64743U 25144V   26177.75001156  .00012893  00000+0  40289-3 0  9996
2 64743  53.1592  34.3695 0001038  80.0166 178.6961 15.33531177  5890
STARLINK-34185          
1 64744U 25144W   26177.62398008  .00035517  00000+0  12060-2 0  9991
2 64744  53.1585  34.8044 0001276  92.9871 267.1276 15.30188995 56392
STARLINK-34581          
1 64745U 25144X   26177.60720850  .00024255  00000+0  82819-3 0  9991
2 64745  53.1593  35.4082 0002573  97.7253 262.4040 15.30205478 56381
STARLINK-34592          
1 64746U 25144Y   26177.73201337  .00017335  00000+0  59646-3 0  9993
2 64746  53.1594  21.9867 0001106  89.3342 270.7785 15.30176471 56581
STARLINK-34589          
1 64747U 25144Z   26177.73938830  .00013216  00000+0  45781-3 0  9998
2 64747  53.1592  21.9702 0001548  99.1873 260.9303 15.30179895 56586
STARLINK-34536          
1 64748U 25144AA  26177.32695088  .00021043  00000+0  72063-3 0  9999
2 64748  53.1594  36.5033 0001558  78.6293 281.4882 15.30198656 56347
STARLINK-34595          
1 64749U 25144AB  26177.32802955  .00033353  00000+0  11336-2 0  9995
2 64749  53.1605  36.5104 0001081  94.5440 265.5684 15.30188988 56342
STARLINK-34531          
1 64750U 25144AC  26177.30405289  .00033874  00000+0  10363-2 0  9991
2 64750  53.1596  36.3652 0000841 125.6681 234.4399 15.33559855 56341
STARLINK-33965          
1 64755U 25147A   26177.48283558  .00029863  00000+0  89044-3 0  9997
2 64755  53.1572  95.6404 0001235 104.8790 255.2349 15.34436366 55472
STARLINK-34371          
1 64756U 25147B   26177.47427580  .00023800  00000+0  77593-3 0  9993
2 64756  53.1569  97.0005 0000986  88.7016 271.4098 15.31713930 55366
STARLINK-34401          
1 64757U 25147C   26177.76654338  .00049277  00000+0  14603-2 0  9997
2 64757  53.1571  94.5634 0003020 102.8077 257.3263 15.34390762 55406
STARLINK-34593          
1 64758U 25147D   26177.73287372  .00029909  00000+0  89227-3 0  9990
2 64758  53.1564  94.3540 0003602  85.0373 275.1041 15.34415304 55479
STARLINK-34598          
1 64759U 25147E   26177.07318066  .00024449  00000+0  73240-3 0  9995
2 64759  53.1582  98.0521 0001332  91.3217 268.7938 15.34399557 55312
STARLINK-34235          
1 64760U 25147F   26177.07528505  .00039184  00000+0  11647-2 0  9992
2 64760  53.1571  98.0682 0001162  72.3520 287.7610 15.34402980 55400
STARLINK-34635          
1 64761U 25147G   26176.99962987  .00019846  00000+0  59685-3 0  9997
2 64761  53.1566  98.3080 0000710  67.8612 292.2466 15.34404770 55352
STARLINK-34638          
1 64762U 25147H   26177.48493926  .00028185  00000+0  84112-3 0  9994
2 64762  53.1579  95.6508 0001395  78.4876 281.6283 15.34439638 55431
STARLINK-34534          
1 64763U 25147J   26177.51019745  .00021333  00000+0  63994-3 0  9995
2 64763  53.1585  95.8044 0001024 111.4165 248.6947 15.34438218 55437
STARLINK-34261          
1 64764U 25147K   26177.47863764  .00017458  00000+0  52664-3 0  9994
2 64764  53.1573  95.6084 0001220  92.8710 267.2432 15.34399401 55473
STARLINK-34566          
1 64765U 25147L   26177.49547301  .00026727  00000+0  79951-3 0  9990
2 64765  53.1593  95.7120 0001800  84.3305 275.7903 15.34393218 55431
STARLINK-34645          
1 64766U 25147M   26177.74426353  .00015941  00000+0  54871-3 0  9992
2 64766  53.1566  96.5486 0001572 106.1276 253.9898 15.30227742 55448
STARLINK-34639          
1 64767U 25147N   26177.50177487  .00025478  00000+0  76202-3 0  9996
2 64767  53.1585  95.7487 0000924  70.6446 289.4657 15.34424836 55383
STARLINK-34609          
1 64768U 25147P   26177.44890633  .00410754  00000+0  12654-1 0  9999
2 64768  53.1584  87.6122 0000988 105.5003 254.6107 15.31394710 55542
STARLINK-34246          
1 64769U 25147Q   26177.74970870  .00022606  00000+0  67842-3 0  9991
2 64769  53.1579  94.4586 0002051  87.7680 272.3557 15.34388577 55477
