OBJECT_NAME,OBJECT_ID,EPOCH,MEAN_MOTION,ECCENTRICITY,INCLINATION,RA_OF_ASC_NODE,ARG_OF_PERICENTER,MEAN_ANOMALY,EPHEMERIS_TYPE,CLASSIFICATION_TYPE,NORAD_CAT_ID,ELEMENT_SET_NO,REV_AT_EPOCH,BSTAR,MEAN_MOTION_DOT,MEAN_MOTION_DDOT
STARLINK-34130,2025-144N,2026-06-26T07:36:58.035168,15.30592825,.0002584,53.1588,36.4454,178.9341,181.1666,0,U,64736,999,5634,.66816E-2,.205574E-2,0
STARLINK-34619,2025-144P,2026-06-26T08:21:11.432736,15.30203527,.0001116,53.1590,36.6373,81.7925,278.3203,0,U,64737,999,5634,.53968E-3,.1566E-3,0
STARLINK-34597,2025-144Q,2026-06-26T17:59:02.454144,15.30183334,.0000961,53.1594,34.1690,84.5816,275.5294,0,U,64738,999,5639,.60184E-3,.17499E-3,0
STARLINK-34471,2025-144R,2026-06-25T22:32:33.895680,15.30206171,.00011574,53.1606,38.3552,70.5862,289.5263,0,U,64739,999,5622,.85757179E-3,.2513E-3,0
STARLINK-34208,2025-144S,2026-06-26T14:11:57.784128,15.34387142,.0002127,53.1584,31.0595,96.1040,264.0205,0,U,64740,999,5644,.61705E-3,.20521E-3,0
STARLINK-34205,2025-144T,2026-06-26T18:00:00.998784,15.34389513,.0000852,53.1595,34.3080,104.2738,187.5512,0,U,64741,999,589,-.28762E-3,-.10077E-3,0
STARLINK-34607,2025-144U,2026-06-26T14:22:13.543968,15.30188038,.0002408,53.1585,35.3612,85.7492,274.3784,0,U,64742,999,5636,.54991E-3,.15957E-3,0
STARLINK-34236,2025-144V,2026-06-26T18:00:00.998784,15.33531177,.0001038,53.1592,34.3695,80.0166,178.6961,0,U,64743,999,589,.40289E-3,.12893E-3,0
STARLINK-34185,2025-144W,2026-06-26T14:58:31.878912,15.30188995,.0001276,53.1585,34.8044,92.9871,267.1276,0,U,64744,999,5639,.1206E-2,.35517E-3,0
STARLINK-34581,2025-144X,2026-06-26T14:34:22.814400,15.30205478,.0002573,53.1593,35.4082,97.7253,262.4040,0,U,64745,999,5638,.82819E-3,.24255E-3,0
STARLINK-34592,2025-144Y,2026-06-26T17:34:05.955168,15.30176471,.0001106,53.1594,21.9867,89.3342,270.7785,0,U,64746,999,5658,.59646E-3,.17335E-3,0
STARLINK-34589,2025-144Z,2026-06-26T17:44:43.149120,15.30179895,.0001548,53.1592,21.9702,99.1873,260.9303,0,U,64747,999,5658,.45781E-3,.13216E-3,0
STARLINK-34536,2025-144AA,2026-06-26T07:50:48.556032,15.30198656,.0001558,53.1594,36.5033,78.6293,281.4882,0,U,64748,999,5634,.72063E-3,.21043E-3,0
STARLINK-34595,2025-144AB,2026-06-26T07:52:21.753120,15.30188988,.0001081,53.1605,36.5104,94.5440,265.5684,0,U,64749,999,5634,.11336E-2,.33353E-3,0
STARLINK-34531,2025-144AC,2026-06-26T07:17:50.169696,15.33559855,.0000841,53.1596,36.3652,125.6681,234.4399,0,U,64750,999,5634,.10363E-2,.33874E-3,0
STARLINK-33965,2025-147A,2026-06-26T11:35:16.994112,15.34436366,.0001235,53.1572,95.6404,104.8790,255.2349,0,U,64755,999,5547,.89044E-3,.29863E-3,0
STARLINK-34371,2025-147B,2026-06-26T11:22:57.429120,15.31713930,.0000986,53.1569,97.0005,88.7016,271.4098,0,U,64756,999,5536,.77593E-3,.238E-3,0
STARLINK-34401,2025-147C,2026-06-26T18:23:49.348032,15.34390762,.000302,53.1571,94.5634,102.8077,257.3263,0,U,64757,999,5540,.14603E-2,.49277E-3,0
STARLINK-34593,2025-147D,2026-06-26T17:35:20.289408,15.34415304,.0003602,53.1564,94.3540,85.0373,275.1041,0,U,64758,999,5547,.89227E-3,.29909E-3,0
STARLINK-34598,2025-147E,2026-06-26T01:45:22.809024,15.34399557,.00013325,53.1582,98.0521,91.3217,268.7938,0,U,64759,999,5531,.73239592E-3,.24449E-3,0
STARLINK-34235,2025-147F,2026-06-26T01:48:24.628320,15.34402980,.0001162,53.1571,98.0682,72.3520,287.7610,0,U,64760,999,5540,.1164688E-2,.39184E-3,0
STARLINK-34635,2025-147G,2026-06-25T23:59:28.020768,15.34404770,.00007104,53.1566,98.3080,67.8612,292.2466,0,U,64761,999,5535,.59684563E-3,.19846E-3,0
STARLINK-34638,2025-147H,2026-06-26T11:38:18.752064,15.34439638,.0001395,53.1579,95.6508,78.4876,281.6283,0,U,64762,999,5543,.84112E-3,.28185E-3,0
STARLINK-34534,2025-147J,2026-06-26T12:14:41.059680,15.34438218,.0001024,53.1585,95.8044,111.4165,248.6947,0,U,64763,999,5543,.63994E-3,.21333E-3,0
STARLINK-34261,2025-147K,2026-06-26T11:29:14.292096,15.34399401,.000122,53.1573,95.6084,92.8710,267.2432,0,U,64764,999,5547,.52664E-3,.17458E-3,0
STARLINK-34566,2025-147L,2026-06-26T11:53:28.868064,15.34393218,.00018,53.1593,95.7120,84.3305,275.7903,0,U,64765,999,5543,.79951E-3,.26727E-3,0
STARLINK-34645,2025-147M,2026-06-26T17:51:44.368992,15.30227742,.0001572,53.1566,96.5486,106.1276,253.9898,0,U,64766,999,5544,.54871E-3,.15941E-3,0
STARLINK-34639,2025-147N,2026-06-26T12:02:33.348768,15.34424836,.0000924,53.1585,95.7487,70.6446,289.4657,0,U,64767,999,5538,.76202E-3,.25478E-3,0
STARLINK-34609,2025-147P,2026-06-26T10:46:25.506912,15.31394710,.0000988,53.1584,87.6122,105.5003,254.6107,0,U,64768,999,5554,.12654E-1,.410754E-2,0
STARLINK-34246,2025-147Q,2026-06-26T17:59:34.831680,15.34388577,.0002051,53.1579,94.4586,87.7680,272.3557,0,U,64769,999,5547,.67842E-3,.22606E-3,0
